ONEWEB-0434             
1 51631U 22012K   26054.26203736 -.00000566  00000+0 -16590-2 0  9990
2 51631  87.8753  58.9825 0001758  68.7584 291.3731 13.10371604194402
ONEWEB-0435             
1 51632U 22012L   26054.27019928 -.00000549  00000+0 -16094-2 0  9990
2 51632  87.8757  58.9717 0001614 100.3457 259.7852 13.10373503194390
ONEWEB-0436             
1 51633U 22012M   26054.15608975  .00000055  00000+0  10720-3 0  9995
2 51633  87.9131  28.4844 0001822  90.1424 269.9916 13.17649609198660
ONEWEB-0438             
1 51634U 22012N   26054.25360413 -.00000190  00000+0 -58107-3 0  9992
2 51634  87.8751  58.9756 0001892  83.4591 276.6752 13.10370250194424
ONEWEB-0439             
1 51635U 22012P   26054.25691808 -.00000431  00000+0 -12698-2 0  9990
2 51635  87.8753  58.9641 0001741  88.6851 271.4476 13.10367770194406
ONEWEB-0442             
1 51636U 22012Q   26053.99662842 -.00000050  00000+0 -16308-3 0  9997
2 51636  87.9119  28.5567 0002139  67.4196 292.7162 13.17647104198639
ONEWEB-0443             
1 51637U 22012R   26054.16791067  .00000101  00000+0  22724-3 0  9994
2 51637  87.9121  28.5253 0001566  77.4547 282.6760 13.17650123198704
ONEWEB-0444             
1 51638U 22012S   26054.24697100  .00000056  00000+0  12314-3 0  9990
2 51638  87.8753  58.9647 0001798  90.6870 269.4463 13.10369793194412
ONEWEB-0445             
1 51639U 22012T   26054.26854071 -.00000540  00000+0 -15839-2 0  9999
2 51639  87.8767  58.9380 0002108  91.3520 268.7849 13.10373132194421
ONEWEB-0446             
1 51640U 22012U   26054.24531024  .00000277  00000+0  75618-3 0  9996
2 51640  87.8751  58.9810 0002023  89.6900 270.4459 13.10370703194408
ONEWEB-0448             
1 51641U 22012V   26054.25028712 -.00000076  00000+0 -25350-3 0  9990
2 51641  87.8749  58.9786 0001817  90.5744 269.5591 13.10369812194376
ONEWEB-0449             
1 51642U 22012W   26054.25526180 -.00000302  00000+0 -90164-3 0  9990
2 51642  87.8760  58.9551 0001790  75.0465 285.0861 13.10370507194385
ONEWEB-0451             
1 51643U 22012X   26054.15272313  .00000032  00000+0  48511-4 0  9994
2 51643  87.9131  28.4804 0001847  80.0573 280.0767 13.17648124198644
ONEWEB-0452             
1 51644U 22012Y   26054.22697563  .00000104  00000+0  23558-3 0  9994
2 51644  87.9124  28.5133 0001648  75.7406 284.3909 13.17648240198664
ONEWEB-0456             
1 51646U 22012AA  26054.03613692 -.00000614  00000+0 -17959-2 0  9991
2 51646  87.8772  58.9760 0001781  93.8143 266.3188 13.10372557194397
ONEWEB-0457             
1 51647U 22012AB  26054.24201448  .00000318  00000+0  87413-3 0  9999
2 51647  87.8753  58.9693 0002230  83.1755 276.9626 13.10372178194420
ONEWEB-0458             
1 51648U 22012AC  26054.26356055 -.00000591  00000+0 -17285-2 0  9991
2 51648  87.8762  58.9450 0001743  86.2781 273.8546 13.10371674194385
