[{"OBJECT_NAME":"ONEWEB-0434","OBJECT_ID":"2022-012K","EPOCH":"2026-02-23T06:17:20.027904","MEAN_MOTION":13.10371604,"ECCENTRICITY":0.00017587,"INCLINATION":87.8753,"RA_OF_ASC_NODE":58.9825,"ARG_OF_PERICENTER":68.7584,"MEAN_ANOMALY":291.3731,"EPHEMERIS_TYPE":0,"CLASSIFICATION_TYPE":"U","NORAD_CAT_ID":51631,"ELEMENT_SET_NO":999,"REV_AT_EPOCH":19440,"BSTAR":-0.0016590377,"MEAN_MOTION_DOT":-5.66e-6,"MEAN_MOTION_DDOT":0},{"OBJECT_NAME":"ONEWEB-0435","OBJECT_ID":"2022-012L","EPOCH":"2026-02-23T06:29:05.217792","MEAN_MOTION":13.10373503,"ECCENTRICITY":0.00016142,"INCLINATION":87.8757,"RA_OF_ASC_NODE":58.9717,"ARG_OF_PERICENTER":100.3457,"MEAN_ANOMALY":259.7852,"EPHEMERIS_TYPE":0,"CLASSIFICATION_TYPE":"U","NORAD_CAT_ID":51632,"ELEMENT_SET_NO":999,"REV_AT_EPOCH":19439,"BSTAR":-0.0016093674,"MEAN_MOTION_DOT":-5.49e-6,"MEAN_MOTION_DDOT":0},{"OBJECT_NAME":"ONEWEB-0436","OBJECT_ID":"2022-012M","EPOCH":"2026-02-23T03:44:46.154400","MEAN_MOTION":13.17649609,"ECCENTRICITY":0.00018224,"INCLINATION":87.9131,"RA_OF_ASC_NODE":28.4844,"ARG_OF_PERICENTER":90.1424,"MEAN_ANOMALY":269.9916,"EPHEMERIS_TYPE":0,"CLASSIFICATION_TYPE":"U","NORAD_CAT_ID":51633,"ELEMENT_SET_NO":999,"REV_AT_EPOCH":19866,"BSTAR":0.00010720071,"MEAN_MOTION_DOT":5.5e-7,"MEAN_MOTION_DDOT":0},{"OBJECT_NAME":"ONEWEB-0438","OBJECT_ID":"2022-012N","EPOCH":"2026-02-23T06:05:11.396832","MEAN_MOTION":13.1037025,"ECCENTRICITY":0.00018925,"INCLINATION":87.8751,"RA_OF_ASC_NODE":58.9756,"ARG_OF_PERICENTER":83.4591,"MEAN_ANOMALY":276.6752,"EPHEMERIS_TYPE":0,"CLASSIFICATION_TYPE":"U","NORAD_CAT_ID":51634,"ELEMENT_SET_NO":999,"REV_AT_EPOCH":19442,"BSTAR":-0.00058107397,"MEAN_MOTION_DOT":-1.9e-6,"MEAN_MOTION_DDOT":0},{"OBJECT_NAME":"ONEWEB-0439","OBJECT_ID":"2022-012P","EPOCH":"2026-02-23T06:09:57.722112","MEAN_MOTION":13.1036777,"ECCENTRICITY":0.00017411,"INCLINATION":87.8753,"RA_OF_ASC_NODE":58.9641,"ARG_OF_PERICENTER":88.6851,"MEAN_ANOMALY":271.4476,"EPHEMERIS_TYPE":0,"CLASSIFICATION_TYPE":"U","NORAD_CAT_ID":51635,"ELEMENT_SET_NO":999,"REV_AT_EPOCH":19440,"BSTAR":-0.0012698086,"MEAN_MOTION_DOT":-4.31e-6,"MEAN_MOTION_DDOT":0},{"OBJECT_NAME":"ONEWEB-0442","OBJECT_ID":"2022-012Q","EPOCH":"2026-02-22T23:55:08.695488","MEAN_MOTION":13.17647104,"ECCENTRICITY":0.00021398,"INCLINATION":87.9119,"RA_OF_ASC_NODE":28.5567,"ARG_OF_PERICENTER":67.4196,"MEAN_ANOMALY":292.7162,"EPHEMERIS_TYPE":0,"CLASSIFICATION_TYPE":"U","NORAD_CAT_ID":51636,"ELEMENT_SET_NO":999,"REV_AT_EPOCH":19863,"BSTAR":-0.00016308086,"MEAN_MOTION_DOT":-5.0e-7,"MEAN_MOTION_DDOT":0},{"OBJECT_NAME":"ONEWEB-0443","OBJECT_ID":"2022-012R","EPOCH":"2026-02-23T04:01:47.481888","MEAN_MOTION":13.17650123,"ECCENTRICITY":0.00015667,"INCLINATION":87.9121,"RA_OF_ASC_NODE":28.5253,"ARG_OF_PERICENTER":77.4547,"MEAN_ANOMALY":282.676,"EPHEMERIS_TYPE":0,"CLASSIFICATION_TYPE":"U","NORAD_CAT_ID":51637,"ELEMENT_SET_NO":999,"REV_AT_EPOCH":19870,"BSTAR":0.00022723924,"MEAN_MOTION_DOT":1.01e-6,"MEAN_MOTION_DDOT":0},{"OBJECT_NAME":"ONEWEB-0444","OBJECT_ID":"2022-012S","EPOCH":"2026-02-23T05:55:38.294400","MEAN_MOTION":13.10369793,"ECCENTRICITY":0.0001798,"INCLINATION":87.8753,"RA_OF_ASC_NODE":58.9647,"ARG_OF_PERICENTER":90.687,"MEAN_ANOMALY":269.4463,"EPHEMERIS_TYPE":0,"CLASSIFICATION_TYPE":"U","NORAD_CAT_ID":51638,"ELEMENT_SET_NO":999,"REV_AT_EPOCH":19441,"BSTAR":0.00012313826,"MEAN_MOTION_DOT":5.6e-7,"MEAN_MOTION_DDOT":0},{"OBJECT_NAME":"ONEWEB-0445","OBJECT_ID":"2022-012T","EPOCH":"2026-02-23T06:26:41.917344","MEAN_MOTION":13.10373132,"ECCENTRICITY":0.00021083,"INCLINATION":87.8767,"RA_OF_ASC_NODE":58.938,"ARG_OF_PERICENTER":91.352,"MEAN_ANOMALY":268.7849,"EPHEMERIS_TYPE":0,"CLASSIFICATION_TYPE":"U","NORAD_CAT_ID":51639,"ELEMENT_SET_NO":999,"REV_AT_EPOCH":19442,"BSTAR":-0.0015839015,"MEAN_MOTION_DOT":-5.4e-6,"MEAN_MOTION_DDOT":0},{"OBJECT_NAME":"ONEWEB-0446","OBJECT_ID":"2022-012U","EPOCH":"2026-02-23T05:53:14.804736","MEAN_MOTION":13.10370703,"ECCENTRICITY":0.0002023,"INCLINATION":87.8751,"RA_OF_ASC_NODE":58.981,"ARG_OF_PERICENTER":89.69,"MEAN_ANOMALY":270.4459,"EPHEMERIS_TYPE":0,"CLASSIFICATION_TYPE":"U","NORAD_CAT_ID":51640,"ELEMENT_SET_NO":999,"REV_AT_EPOCH":19440,"BSTAR":0.00075618279,"MEAN_MOTION_DOT":2.77e-6,"MEAN_MOTION_DDOT":0},{"OBJECT_NAME":"ONEWEB-0448","OBJECT_ID":"2022-012V","EPOCH":"2026-02-23T06:00:24.807168","MEAN_MOTION":13.10369812,"ECCENTRICITY":0.00018177,"INCLINATION":87.8749,"RA_OF_ASC_NODE":58.9786,"ARG_OF_PERICENTER":90.5744,"MEAN_ANOMALY":269.5591,"EPHEMERIS_TYPE":0,"CLASSIFICATION_TYPE":"U","NORAD_CAT_ID":51641,"ELEMENT_SET_NO":999,"REV_AT_EPOCH":19437,"BSTAR":-0.00025350109,"MEAN_MOTION_DOT":-7.6e-7,"MEAN_MOTION_DDOT":0},{"OBJECT_NAME":"ONEWEB-0449","OBJECT_ID":"2022-012W","EPOCH":"2026-02-23T06:07:34.619520","MEAN_MOTION":13.10370507,"ECCENTRICITY":0.00017902,"INCLINATION":87.876,"RA_OF_ASC_NODE":58.9551,"ARG_OF_PERICENTER":75.0465,"MEAN_ANOMALY":285.0861,"EPHEMERIS_TYPE":0,"CLASSIFICATION_TYPE":"U","NORAD_CAT_ID":51642,"ELEMENT_SET_NO":999,"REV_AT_EPOCH":19438,"BSTAR":-0.00090163623,"MEAN_MOTION_DOT":-3.02e-6,"MEAN_MOTION_DDOT":0},{"OBJECT_NAME":"ONEWEB-0451","OBJECT_ID":"2022-012X","EPOCH":"2026-02-23T03:39:55.278432","MEAN_MOTION":13.17648124,"ECCENTRICITY":0.00018475,"INCLINATION":87.9131,"RA_OF_ASC_NODE":28.4804,"ARG_OF_PERICENTER":80.0573,"MEAN_ANOMALY":280.0767,"EPHEMERIS_TYPE":0,"CLASSIFICATION_TYPE":"U","NORAD_CAT_ID":51643,"ELEMENT_SET_NO":999,"REV_AT_EPOCH":19864,"BSTAR":4.851114e-5,"MEAN_MOTION_DOT":3.2e-7,"MEAN_MOTION_DDOT":0},{"OBJECT_NAME":"ONEWEB-0452","OBJECT_ID":"2022-012Y","EPOCH":"2026-02-23T05:26:50.694432","MEAN_MOTION":13.1764824,"ECCENTRICITY":0.00016489,"INCLINATION":87.9124,"RA_OF_ASC_NODE":28.5133,"ARG_OF_PERICENTER":75.7406,"MEAN_ANOMALY":284.3909,"EPHEMERIS_TYPE":0,"CLASSIFICATION_TYPE":"U","NORAD_CAT_ID":51644,"ELEMENT_SET_NO":999,"REV_AT_EPOCH":19866,"BSTAR":0.00023558089,"MEAN_MOTION_DOT":1.04e-6,"MEAN_MOTION_DDOT":0},{"OBJECT_NAME":"ONEWEB-0456","OBJECT_ID":"2022-012AA","EPOCH":"2026-02-23T00:52:02.229888","MEAN_MOTION":13.10372557,"ECCENTRICITY":0.00017817,"INCLINATION":87.8772,"RA_OF_ASC_NODE":58.976,"ARG_OF_PERICENTER":93.8143,"MEAN_ANOMALY":266.3188,"EPHEMERIS_TYPE":0,"CLASSIFICATION_TYPE":"U","NORAD_CAT_ID":51646,"ELEMENT_SET_NO":999,"REV_AT_EPOCH":19439,"BSTAR":-0.0017958743,"MEAN_MOTION_DOT":-6.14e-6,"MEAN_MOTION_DDOT":0},{"OBJECT_NAME":"ONEWEB-0457","OBJECT_ID":"2022-012AB","EPOCH":"2026-02-23T05:48:30.051072","MEAN_MOTION":13.10372178,"ECCENTRICITY":0.00022309,"INCLINATION":87.8753,"RA_OF_ASC_NODE":58.9693,"ARG_OF_PERICENTER":83.1755,"MEAN_ANOMALY":276.9626,"EPHEMERIS_TYPE":0,"CLASSIFICATION_TYPE":"U","NORAD_CAT_ID":51647,"ELEMENT_SET_NO":999,"REV_AT_EPOCH":19442,"BSTAR":0.00087412828,"MEAN_MOTION_DOT":3.18e-6,"MEAN_MOTION_DDOT":0},{"OBJECT_NAME":"ONEWEB-0458","OBJECT_ID":"2022-012AC","EPOCH":"2026-02-23T06:19:31.631520","MEAN_MOTION":13.10371674,"ECCENTRICITY":0.00017434,"INCLINATION":87.8762,"RA_OF_ASC_NODE":58.945,"ARG_OF_PERICENTER":86.2781,"MEAN_ANOMALY":273.8546,"EPHEMERIS_TYPE":0,"CLASSIFICATION_TYPE":"U","NORAD_CAT_ID":51648,"ELEMENT_SET_NO":999,"REV_AT_EPOCH":19438,"BSTAR":-0.001728528,"MEAN_MOTION_DOT":-5.91e-6,"MEAN_MOTION_DDOT":0}]
